[{"OBJECT_NAME":"STARLINK-30961","OBJECT_ID":"2023-183J","EPOCH":"2026-03-09T23:38:37.717728","MEAN_MOTION":15.26734072,"ECCENTRICITY":0.00017368,"INCLINATION":43.0029,"RA_OF_ASC_NODE":39.5902,"ARG_OF_PERICENTER":271.5992,"MEAN_ANOMALY":88.466,"EPHEMERIS_TYPE":0,"CLASSIFICATION_TYPE":"U","NORAD_CAT_ID":58445,"ELEMENT_SET_NO":999,"REV_AT_EPOCH":12678,"BSTAR":-2.2357482e-5,"MEAN_MOTION_DOT":-8.59e-6,"MEAN_MOTION_DDOT":0},{"OBJECT_NAME":"OBJECT B","OBJECT_ID":"2024-203B","EPOCH":"2026-03-09T23:52:52.928256","MEAN_MOTION":15.27506959,"ECCENTRICITY":0.00103904,"INCLINATION":97.4268,"RA_OF_ASC_NODE":139.5887,"ARG_OF_PERICENTER":321.1475,"MEAN_ANOMALY":38.9016,"EPHEMERIS_TYPE":0,"CLASSIFICATION_TYPE":"U","NORAD_CAT_ID":61870,"ELEMENT_SET_NO":999,"REV_AT_EPOCH":7381,"BSTAR":0.00063263842,"MEAN_MOTION_DOT":0.00016997,"MEAN_MOTION_DDOT":0}]
